start=new Date('2021-09-16T00:00:00.000Z').valueOf();
sats=[{"MEAN_ELEMENT_THEORY":"SGP4","MEAN_MOTION_DOT":"0.00012116","PERIAPSIS":"546.167","EPHEMERIS_TYPE":"0","GP_ID":"184788193","MEAN_ANOMALY":"185.8189","REF_FRAME":"TEME","EPOCH":"2021-09-15T22:00:00.999936","INCLINATION":"53.0521","NORAD_CAT_ID":"48286","MEAN_MOTION":"15.06386487","TIME_SYSTEM":"UTC","FILE":"3116597","RCS_SIZE":"LARGE","APOAPSIS":"548.343","PERIOD":"95.593","TLE_LINE1":"1 48286U 21036L   21258.91667824  .00012116  00000-0  83117-3 0  9995","COUNTRY_CODE":"US","ARG_OF_PERICENTER":"63.2145","BSTAR":"0.00083117000000","ELEMENT_SET_NO":"999","REV_AT_EPOCH":"360","SEMIMAJOR_AXIS":"6925.390","CENTER_NAME":"EARTH","SITE":"AFETR","TLE_LINE2":"2 48286  53.0521 224.8792 0001571  63.2145 185.8189 15.06386487  3602","CLASSIFICATION_TYPE":"U","OBJECT_NAME":"STARLINK-2547","ECCENTRICITY":"0.00015710","LAUNCH_DATE":"2021-04-29","RA_OF_ASC_NODE":"224.8792","OBJECT_TYPE":"PAYLOAD","OBJECT_ID":"2021-036L","DECAY_DATE":null,"MEAN_MOTION_DDOT":"0.0000000000000"},{"FILE":"3116597","NORAD_CAT_ID":"48287","TIME_SYSTEM":"UTC","MEAN_MOTION":"15.06412791","INCLINATION":"53.0531","EPOCH":"2021-09-15T22:00:00.999936","REF_FRAME":"TEME","GP_ID":"184788945","MEAN_ANOMALY":"200.1930","EPHEMERIS_TYPE":"0","PERIAPSIS":"546.023","MEAN_MOTION_DOT":"-0.00029272","MEAN_ELEMENT_THEORY":"SGP4","ELEMENT_SET_NO":"999","BSTAR":"-0.00195360000000","ARG_OF_PERICENTER":"68.8553","COUNTRY_CODE":"US","TLE_LINE1":"1 48287U 21036M   21258.91667824 -.00029272  00000-0 -19536-2 0  9992","PERIOD":"95.591","APOAPSIS":"548.326","RCS_SIZE":"LARGE","LAUNCH_DATE":"2021-04-29","RA_OF_ASC_NODE":"224.8763","ECCENTRICITY":"0.00016630","CLASSIFICATION_TYPE":"U","OBJECT_NAME":"STARLINK-2566","TLE_LINE2":"2 48287  53.0531 224.8763 0001663  68.8553 200.1930 15.06412791  3601","SITE":"AFETR","CENTER_NAME":"EARTH","SEMIMAJOR_AXIS":"6925.309","REV_AT_EPOCH":"360","MEAN_MOTION_DDOT":"0.0000000000000","OBJECT_ID":"2021-036M","DECAY_DATE":null,"OBJECT_TYPE":"PAYLOAD"},{"APOAPSIS":"548.433","RCS_SIZE":"LARGE","ARG_OF_PERICENTER":"77.6913","BSTAR":"0.00102800000000","ELEMENT_SET_NO":"999","TLE_LINE1":"1 48288U 21036N   21258.91667824  .00015062  00000-0  10280-2 0  9990","PERIOD":"95.592","COUNTRY_CODE":"US","PERIAPSIS":"546.011","EPHEMERIS_TYPE":"0","GP_ID":"184789193","REF_FRAME":"TEME","MEAN_ANOMALY":"211.3013","MEAN_ELEMENT_THEORY":"SGP4","MEAN_MOTION_DOT":"0.00015062","INCLINATION":"53.0541","NORAD_CAT_ID":"48288","MEAN_MOTION":"15.06397202","TIME_SYSTEM":"UTC","FILE":"3116597","EPOCH":"2021-09-15T22:00:00.999936","OBJECT_TYPE":"PAYLOAD","DECAY_DATE":null,"OBJECT_ID":"2021-036N","MEAN_MOTION_DDOT":"0.0000000000000","CENTER_NAME":"EARTH","SITE":"AFETR","TLE_LINE2":"2 48288  53.0541 224.8757 0001749  77.6913 211.3013 15.06397202  3592","REV_AT_EPOCH":"359","SEMIMAJOR_AXIS":"6925.357","ECCENTRICITY":"0.00017490","LAUNCH_DATE":"2021-04-29","RA_OF_ASC_NODE":"224.8757","OBJECT_NAME":"STARLINK-2562","CLASSIFICATION_TYPE":"U"},{"PERIOD":"95.592","TLE_LINE1":"1 48289U 21036P   21258.91667824  .00000141  00000-0  28350-4 0  9992","COUNTRY_CODE":"US","ARG_OF_PERICENTER":"57.9905","ELEMENT_SET_NO":"999","BSTAR":"0.00002835000000","RCS_SIZE":"LARGE","APOAPSIS":"548.324","EPOCH":"2021-09-15T22:00:00.999936","NORAD_CAT_ID":"48289","MEAN_MOTION":"15.06395004","TIME_SYSTEM":"UTC","INCLINATION":"53.0510","FILE":"3116597","MEAN_MOTION_DOT":"0.00000141","MEAN_ELEMENT_THEORY":"SGP4","EPHEMERIS_TYPE":"0","PERIAPSIS":"546.134","REF_FRAME":"TEME","GP_ID":"184787944","MEAN_ANOMALY":"250.9831","OBJECT_ID":"2021-036P","DECAY_DATE":null,"MEAN_MOTION_DDOT":"0.0000000000000","OBJECT_TYPE":"PAYLOAD","CLASSIFICATION_TYPE":"U","OBJECT_NAME":"STARLINK-2545","ECCENTRICITY":"0.00015810","LAUNCH_DATE":"2021-04-29","RA_OF_ASC_NODE":"224.8807","SEMIMAJOR_AXIS":"6925.364","REV_AT_EPOCH":"360","SITE":"AFETR","CENTER_NAME":"EARTH","TLE_LINE2":"2 48289  53.0510 224.8807 0001581  57.9905 250.9831 15.06395004  3608"},{"FILE":"3116597","INCLINATION":"53.0517","TIME_SYSTEM":"UTC","NORAD_CAT_ID":"48290","MEAN_MOTION":"15.06376378","EPOCH":"2021-09-15T22:00:00.999936","GP_ID":"184787693","MEAN_ANOMALY":"258.5881","REF_FRAME":"TEME","PERIAPSIS":"546.192","EPHEMERIS_TYPE":"0","MEAN_ELEMENT_THEORY":"SGP4","MEAN_MOTION_DOT":"-0.00043612","BSTAR":"-0.00292880000000","ELEMENT_SET_NO":"999","ARG_OF_PERICENTER":"70.4435","PERIOD":"95.594","TLE_LINE1":"1 48290U 21036Q   21258.91667824 -.00043612  00000-0 -29288-2 0  9995","COUNTRY_CODE":"US","APOAPSIS":"548.379","RCS_SIZE":"LARGE","RA_OF_ASC_NODE":"224.8979","LAUNCH_DATE":"2021-04-29","ECCENTRICITY":"0.00015790","CLASSIFICATION_TYPE":"U","OBJECT_NAME":"STARLINK-2540","TLE_LINE2":"2 48290  53.0517 224.8979 0001579  70.4435 258.5881 15.06376378  3604","CENTER_NAME":"EARTH","SITE":"AFETR","REV_AT_EPOCH":"360","SEMIMAJOR_AXIS":"6925.421","MEAN_MOTION_DDOT":"0.0000000000000","OBJECT_ID":"2021-036Q","DECAY_DATE":null,"OBJECT_TYPE":"PAYLOAD"},{"MEAN_MOTION_DDOT":"0.0000000000000","OBJECT_ID":"2021-036R","DECAY_DATE":null,"OBJECT_TYPE":"PAYLOAD","CLASSIFICATION_TYPE":"U","OBJECT_NAME":"STARLINK-2555","LAUNCH_DATE":"2021-04-29","RA_OF_ASC_NODE":"224.8881","ECCENTRICITY":"0.00018440","SEMIMAJOR_AXIS":"6925.405","REV_AT_EPOCH":"360","TLE_LINE2":"2 48291  53.0531 224.8881 0001844  66.5972 282.4225 15.06381576  3604","CENTER_NAME":"EARTH","SITE":"AFETR","TLE_LINE1":"1 48291U 21036R   21258.91667824  .00017861  00000-0  12155-2 0  9996","PERIOD":"95.593","COUNTRY_CODE":"US","BSTAR":"0.00121550000000","ELEMENT_SET_NO":"999","ARG_OF_PERICENTER":"66.5972","RCS_SIZE":"MEDIUM","APOAPSIS":"548.547","EPOCH":"2021-09-15T22:00:00.999936","FILE":"3116597","INCLINATION":"53.0531","NORAD_CAT_ID":"48291","MEAN_MOTION":"15.06381576","TIME_SYSTEM":"UTC","MEAN_ELEMENT_THEORY":"SGP4","MEAN_MOTION_DOT":"0.00017861","REF_FRAME":"TEME","GP_ID":"184788445","MEAN_ANOMALY":"282.4225","PERIAPSIS":"545.993","EPHEMERIS_TYPE":"0"},{"NORAD_CAT_ID":"48292","TIME_SYSTEM":"UTC","MEAN_MOTION":"15.06382742","INCLINATION":"53.0529","FILE":"3116597","EPOCH":"2021-09-15T22:00:00.999936","EPHEMERIS_TYPE":"0","PERIAPSIS":"546.216","REF_FRAME":"TEME","GP_ID":"184788693","MEAN_ANOMALY":"309.9281","MEAN_MOTION_DOT":"0.00018002","MEAN_ELEMENT_THEORY":"SGP4","ARG_OF_PERICENTER":"64.2213","ELEMENT_SET_NO":"999","BSTAR":"0.00122490000000","PERIOD":"95.593","TLE_LINE1":"1 48292U 21036S   21258.91667824  .00018002  00000-0  12249-2 0  9999","COUNTRY_CODE":"US","APOAPSIS":"548.317","RCS_SIZE":"LARGE","ECCENTRICITY":"0.00015170","RA_OF_ASC_NODE":"224.8835","LAUNCH_DATE":"2021-04-29","CLASSIFICATION_TYPE":"U","OBJECT_NAME":"STARLINK-2542","SITE":"AFETR","CENTER_NAME":"EARTH","TLE_LINE2":"2 48292  53.0529 224.8835 0001517  64.2213 309.9281 15.06382742  3615","REV_AT_EPOCH":"361","SEMIMAJOR_AXIS":"6925.401","DECAY_DATE":null,"OBJECT_ID":"2021-036S","MEAN_MOTION_DDOT":"0.0000000000000","OBJECT_TYPE":"PAYLOAD"},{"APOAPSIS":"548.465","RCS_SIZE":"LARGE","ARG_OF_PERICENTER":"61.9011","BSTAR":"0.00119160000000","ELEMENT_SET_NO":"999","TLE_LINE1":"1 48293U 21036T   21258.91667824  .00017505  00000-0  11916-2 0  9997","PERIOD":"95.593","COUNTRY_CODE":"US","PERIAPSIS":"546.056","EPHEMERIS_TYPE":"0","GP_ID":"184787444","REF_FRAME":"TEME","MEAN_ANOMALY":"327.0991","MEAN_ELEMENT_THEORY":"SGP4","MEAN_MOTION_DOT":"0.00017505","INCLINATION":"53.0527","NORAD_CAT_ID":"48293","MEAN_MOTION":"15.06384677","TIME_SYSTEM":"UTC","FILE":"3116597","EPOCH":"2021-09-15T22:00:00.999936","OBJECT_TYPE":"PAYLOAD","DECAY_DATE":null,"OBJECT_ID":"2021-036T","MEAN_MOTION_DDOT":"0.0000000000000","CENTER_NAME":"EARTH","SITE":"AFETR","TLE_LINE2":"2 48293  53.0527 224.8817 0001739  61.9011 327.0991 15.06384677  3618","SEMIMAJOR_AXIS":"6925.396","REV_AT_EPOCH":"361","ECCENTRICITY":"0.00017390","LAUNCH_DATE":"2021-04-29","RA_OF_ASC_NODE":"224.8817","OBJECT_NAME":"STARLINK-2550","CLASSIFICATION_TYPE":"U"},{"MEAN_MOTION_DDOT":"0.0000000000000","DECAY_DATE":null,"OBJECT_ID":"2021-036U","OBJECT_TYPE":"PAYLOAD","OBJECT_NAME":"STARLINK-2533","CLASSIFICATION_TYPE":"U","LAUNCH_DATE":"2021-04-29","RA_OF_ASC_NODE":"224.8881","ECCENTRICITY":"0.00018130","REV_AT_EPOCH":"361","SEMIMAJOR_AXIS":"6925.362","TLE_LINE2":"2 48294  53.0547 224.8881 0001813  75.4822 333.4870 15.06395544  3617","SITE":"AFETR","CENTER_NAME":"EARTH","COUNTRY_CODE":"US","TLE_LINE1":"1 48294U 21036U   21258.91667824  .00017035  00000-0  11599-2 0  9993","PERIOD":"95.592","ELEMENT_SET_NO":"999","BSTAR":"0.00115990000000","ARG_OF_PERICENTER":"75.4822","RCS_SIZE":"LARGE","APOAPSIS":"548.483","EPOCH":"2021-09-15T22:00:00.999936","FILE":"3116597","TIME_SYSTEM":"UTC","NORAD_CAT_ID":"48294","MEAN_MOTION":"15.06395544","INCLINATION":"53.0547","MEAN_MOTION_DOT":"0.00017035","MEAN_ELEMENT_THEORY":"SGP4","GP_ID":"184788194","REF_FRAME":"TEME","MEAN_ANOMALY":"333.4870","EPHEMERIS_TYPE":"0","PERIAPSIS":"545.972"},{"OBJECT_TYPE":"PAYLOAD","MEAN_MOTION_DDOT":"0.0000000000000","OBJECT_ID":"2021-036V","DECAY_DATE":null,"TLE_LINE2":"2 48295  53.0538 224.8892 0001488  67.8408   1.1337 15.06392350  3612","CENTER_NAME":"EARTH","SITE":"AFETR","SEMIMAJOR_AXIS":"6925.372","REV_AT_EPOCH":"361","LAUNCH_DATE":"2021-04-29","RA_OF_ASC_NODE":"224.8892","ECCENTRICITY":"0.00014880","OBJECT_NAME":"STARLINK-2535","CLASSIFICATION_TYPE":"U","APOAPSIS":"548.267","RCS_SIZE":"LARGE","BSTAR":"0.00046167000000","ELEMENT_SET_NO":"999","ARG_OF_PERICENTER":"67.8408","TLE_LINE1":"1 48295U 21036V   21258.91667824  .00006600  00000-0  46167-3 0  9990","COUNTRY_CODE":"US","PERIOD":"95.593","GP_ID":"184788946","MEAN_ANOMALY":"1.1337","REF_FRAME":"TEME","PERIAPSIS":"546.207","EPHEMERIS_TYPE":"0","MEAN_ELEMENT_THEORY":"SGP4","MEAN_MOTION_DOT":"0.00006600","FILE":"3116597","INCLINATION":"53.0538","NORAD_CAT_ID":"48295","TIME_SYSTEM":"UTC","MEAN_MOTION":"15.06392350","EPOCH":"2021-09-15T22:00:00.999936"}];
